YAOGAN-43 01D           
1 60461U 24148D   26068.43560480  .00010676  00000+0  37766-3 0  9999
2 60461  35.0010  61.7102 0002556 326.2473  33.8080 15.28369377 87008
STARLINK-33866          
1 63653U 25083V   26068.22689692  .00036033  00000+0  13116-2 0  9995
2 63653  43.0049   8.0306 0001501 262.1972  97.8710 15.27603221 50026
