[{"OBJECT_NAME":"YAOGAN-43 01D","OBJECT_ID":"2024-148D","EPOCH":"2026-03-09T10:27:16.254720","MEAN_MOTION":15.28369377,"ECCENTRICITY":0.00025569,"INCLINATION":35.001,"RA_OF_ASC_NODE":61.7102,"ARG_OF_PERICENTER":326.2473,"MEAN_ANOMALY":33.808,"EPHEMERIS_TYPE":0,"CLASSIFICATION_TYPE":"U","NORAD_CAT_ID":60461,"ELEMENT_SET_NO":999,"REV_AT_EPOCH":8700,"BSTAR":0.00037765912,"MEAN_MOTION_DOT":0.00010676,"MEAN_MOTION_DDOT":0},{"OBJECT_NAME":"STARLINK-33866","OBJECT_ID":"2025-083V","EPOCH":"2026-03-09T05:26:43.893888","MEAN_MOTION":15.27603221,"ECCENTRICITY":0.0001501,"INCLINATION":43.0049,"RA_OF_ASC_NODE":8.0306,"ARG_OF_PERICENTER":262.1972,"MEAN_ANOMALY":97.871,"EPHEMERIS_TYPE":0,"CLASSIFICATION_TYPE":"U","NORAD_CAT_ID":63653,"ELEMENT_SET_NO":999,"REV_AT_EPOCH":5002,"BSTAR":0.0013116397,"MEAN_MOTION_DOT":0.00036033,"MEAN_MOTION_DDOT":0}]
